[{"OBJECT_NAME":"BRO-18","OBJECT_ID":"2025-135Y","EPOCH":"2026-03-09T22:42:21.749184","MEAN_MOTION":15.2098794,"ECCENTRICITY":0.00011227,"INCLINATION":97.4502,"RA_OF_ASC_NODE":184.8927,"ARG_OF_PERICENTER":149.5885,"MEAN_ANOMALY":210.5415,"EPHEMERIS_TYPE":0,"CLASSIFICATION_TYPE":"U","NORAD_CAT_ID":64550,"ELEMENT_SET_NO":999,"REV_AT_EPOCH":3978,"BSTAR":0.00031729541,"MEAN_MOTION_DOT":6.966e-5,"MEAN_MOTION_DDOT":0},{"OBJECT_NAME":"NOAA 16 DEB","OBJECT_ID":"2000-055SB","EPOCH":"2026-02-27T15:08:14.620992","MEAN_MOTION":15.12270094,"ECCENTRICITY":0.00176542,"INCLINATION":98.8281,"RA_OF_ASC_NODE":211.5375,"ARG_OF_PERICENTER":315.8201,"MEAN_ANOMALY":44.1615,"EPHEMERIS_TYPE":0,"CLASSIFICATION_TYPE":"U","NORAD_CAT_ID":42383,"ELEMENT_SET_NO":999,"REV_AT_EPOCH":51816,"BSTAR":0.010800989,"MEAN_MOTION_DOT":0.00192328,"MEAN_MOTION_DDOT":0}]
